YAOGAN-35 01A           
1 49390U 21101A   26068.78009532  .00012075  00000+0  47335-3 0  9995
2 49390  34.9903 183.8731 0005688 189.0601 171.0012 15.24952145241689
STARLINK-30312          
1 57641U 23122K   26068.43991047  .00001626  00000+0  70282-4 0  9999
2 57641  43.0030  93.4926 0001693 243.6138 116.4539 15.26737903142171
